{
  "type": "FeatureCollection",
  "features": [
    {
      "type": "Feature",
      "properties": {
        "norad_id": 41581,
        "name": "INTELSAT 31 (IS-31)",
        "group": "intelsat",
        "lat": 0.006347137181985123,
        "lon": 102.01817639215656,
        "alt_km": 35789.44356894688,
        "timestamp": "2025-12-12T07:43:20.171556+00:00",
        "meta_object_name": "INTELSAT 31 (IS-31)",
        "meta_object_id": "2016-035A",
        "meta_epoch": "2025-12-11T21:37:13.469376",
        "meta_mean_motion": 1.00272085,
        "meta_eccentricity": 0.0001989,
        "meta_inclination": 0.0172,
        "meta_ra_of_asc_node": 268.6419,
        "meta_arg_of_pericenter": 307.2662,
        "meta_mean_anomaly": 94.1931,
        "meta_ephemeris_type": 0,
        "meta_classification_type": "U",
        "meta_norad_cat_id": 41581,
        "meta_element_set_no": 999,
        "meta_rev_at_epoch": 3480,
        "meta_bstar": 0,
        "meta_mean_motion_dot": -1.42e-06,
        "meta_mean_motion_ddot": 0,
        "tle_line1": "1 41581U 16035A   25345.90085034 -.00000142  00000+0  00000+0 0  9998",
        "tle_line2": "2 41581   0.0172 268.6419 0001989 307.2662  94.1931  1.00272085 34807"
      },
      "geometry": {
        "type": "Point",
        "coordinates": [
          102.01817639215656,
          0.006347137181985123
        ]
      }
    },
    {
      "type": "Feature",
      "properties": {
        "norad_id": 41747,
        "name": "INTELSAT 36 (IS-36)",
        "group": "intelsat",
        "lat": -0.029227169283665293,
        "lon": -94.4366733755921,
        "alt_km": 35783.17526857665,
        "timestamp": "2025-12-12T07:43:20.171568+00:00",
        "meta_object_name": "INTELSAT 36 (IS-36)",
        "meta_object_id": "2016-053A",
        "meta_epoch": "2025-12-11T19:58:55.649856",
        "meta_mean_motion": 1.00270488,
        "meta_eccentricity": 0.00016639,
        "meta_inclination": 0.0144,
        "meta_ra_of_asc_node": 14.364,
        "meta_arg_of_pericenter": 313.5424,
        "meta_mean_anomaly": 121.097,
        "meta_ephemeris_type": 0,
        "meta_classification_type": "U",
        "meta_norad_cat_id": 41747,
        "meta_element_set_no": 999,
        "meta_rev_at_epoch": 3407,
        "meta_bstar": 0,
        "meta_mean_motion_dot": -1.6e-07,
        "meta_mean_motion_ddot": 0,
        "tle_line1": "1 41747U 16053A   25345.83258854 -.00000016  00000+0  00000+0 0  9996",
        "tle_line2": "2 41747   0.0144  14.3640 0001663 313.5424 121.0970  1.00270488 34074"
      },
      "geometry": {
        "type": "Point",
        "coordinates": [
          -94.4366733755921,
          -0.029227169283665293
        ]
      }
    },
    {
      "type": "Feature",
      "properties": {
        "norad_id": 41945,
        "name": "INTELSAT 32E (IS-32E)",
        "group": "intelsat",
        "lat": 0.03048396361292283,
        "lon": 153.9102530875717,
        "alt_km": 35788.66210482048,
        "timestamp": "2025-12-12T07:43:20.171580+00:00",
        "meta_object_name": "INTELSAT 32E (IS-32E)",
        "meta_object_id": "2017-007B",
        "meta_epoch": "2025-12-11T23:34:41.752416",
        "meta_mean_motion": 1.00269857,
        "meta_eccentricity": 5.508e-05,
        "meta_inclination": 0.0364,
        "meta_ra_of_asc_node": 82.8066,
        "meta_arg_of_pericenter": 280.7424,
        "meta_mean_anomaly": 27.8714,
        "meta_ephemeris_type": 0,
        "meta_classification_type": "U",
        "meta_norad_cat_id": 41945,
        "meta_element_set_no": 999,
        "meta_rev_at_epoch": 3234,
        "meta_bstar": 0,
        "meta_mean_motion_dot": -2.6e-06,
        "meta_mean_motion_ddot": 0,
        "tle_line1": "1 41945U 17007B   25345.98242769 -.00000260  00000+0  00000+0 0  9991",
        "tle_line2": "2 41945   0.0364  82.8066 0000550 280.7424  27.8714  1.00269857 32344"
      },
      "geometry": {
        "type": "Point",
        "coordinates": [
          153.9102530875717,
          0.03048396361292283
        ]
      }
    },
    {
      "type": "Feature",
      "properties": {
        "norad_id": 42818,
        "name": "INTELSAT 35E (IS-35E)",
        "group": "intelsat",
        "lat": 0.007092222709293329,
        "lon": 162.57222392790365,
        "alt_km": 35786.92369822911,
        "timestamp": "2025-12-12T07:43:20.171592+00:00",
        "meta_object_name": "INTELSAT 35E (IS-35E)",
        "meta_object_id": "2017-041A",
        "meta_epoch": "2025-12-11T23:37:11.512992",
        "meta_mean_motion": 1.00273573,
        "meta_eccentricity": 0.00020938,
        "meta_inclination": 0.0181,
        "meta_ra_of_asc_node": 4.6845,
        "meta_arg_of_pericenter": 256.4399,
        "meta_mean_anomaly": 139.6061,
        "meta_ephemeris_type": 0,
        "meta_classification_type": "U",
        "meta_norad_cat_id": 42818,
        "meta_element_set_no": 999,
        "meta_rev_at_epoch": 3093,
        "meta_bstar": 0,
        "meta_mean_motion_dot": -2.29e-06,
        "meta_mean_motion_ddot": 0,
        "tle_line1": "1 42818U 17041A   25345.98416103 -.00000229  00000+0  00000+0 0  9999",
        "tle_line2": "2 42818   0.0181   4.6845 0002093 256.4399 139.6061  1.00273573 30933"
      },
      "geometry": {
        "type": "Point",
        "coordinates": [
          162.57222392790365,
          0.007092222709293329
        ]
      }
    },
    {
      "type": "Feature",
      "properties": {
        "norad_id": 42950,
        "name": "INTELSAT 37E (IS-37E)",
        "group": "intelsat",
        "lat": 0.0012223110697098059,
        "lon": 179.0671265387915,
        "alt_km": 35783.25246153158,
        "timestamp": "2025-12-12T07:43:20.171604+00:00",
        "meta_object_name": "INTELSAT 37E (IS-37E)",
        "meta_object_id": "2017-059A",
        "meta_epoch": "2025-12-11T23:41:56.059296",
        "meta_mean_motion": 1.0027224,
        "meta_eccentricity": 0.00030792,
        "meta_inclination": 0.0019,
        "meta_ra_of_asc_node": 81.2338,
        "meta_arg_of_pericenter": 175.8183,
        "meta_mean_anomaly": 161.3746,
        "meta_ephemeris_type": 0,
        "meta_classification_type": "U",
        "meta_norad_cat_id": 42950,
        "meta_element_set_no": 999,
        "meta_rev_at_epoch": 3018,
        "meta_bstar": 0,
        "meta_mean_motion_dot": -1.32e-06,
        "meta_mean_motion_ddot": 0,
        "tle_line1": "1 42950U 17059A   25345.98745439 -.00000132  00000+0  00000+0 0  9995",
        "tle_line2": "2 42950   0.0019  81.2338 0003079 175.8183 161.3746  1.00272240 30187"
      },
      "geometry": {
        "type": "Point",
        "coordinates": [
          179.0671265387915,
          0.0012223110697098059
        ]
      }
    },
    {
      "type": "Feature",
      "properties": {
        "norad_id": 43632,
        "name": "AZERSPACE 2 (IS-38)",
        "group": "intelsat",
        "lat": -0.033401375939791304,
        "lon": -117.80255702978403,
        "alt_km": 35780.42753269182,
        "timestamp": "2025-12-12T07:43:20.171616+00:00",
        "meta_object_name": "AZERSPACE 2 (IS-38)",
        "meta_object_id": "2018-074A",
        "meta_epoch": "2025-12-11T06:30:38.803680",
        "meta_mean_motion": 1.00271658,
        "meta_eccentricity": 0.00014523,
        "meta_inclination": 0.0184,
        "meta_ra_of_asc_node": 0.4784,
        "meta_arg_of_pericenter": 266.8936,
        "meta_mean_anomaly": 315.6295,
        "meta_ephemeris_type": 0,
        "meta_classification_type": "U",
        "meta_norad_cat_id": 43632,
        "meta_element_set_no": 999,
        "meta_rev_at_epoch": 2656,
        "meta_bstar": 0,
        "meta_mean_motion_dot": 1.43e-06,
        "meta_mean_motion_ddot": 0,
        "tle_line1": "1 43632U 18074A   25345.27128245  .00000143  00000+0  00000+0 0  9994",
        "tle_line2": "2 43632   0.0184   0.4784 0001452 266.8936 315.6295  1.00271658 26568"
      },
      "geometry": {
        "type": "Point",
        "coordinates": [
          -117.80255702978403,
          -0.033401375939791304
        ]
      }
    },
    {
      "type": "Feature",
      "properties": {
        "norad_id": 43633,
        "name": "HORIZONS-3E",
        "group": "intelsat",
        "lat": 0.015353468997717766,
        "lon": 6.107085319702223,
        "alt_km": 35786.78220722809,
        "timestamp": "2025-12-12T07:43:20.171627+00:00",
        "meta_object_name": "HORIZONS-3E",
        "meta_object_id": "2018-074B",
        "meta_epoch": "2025-12-11T19:27:03.434688",
        "meta_mean_motion": 1.00268276,
        "meta_eccentricity": 0.0001075,
        "meta_inclination": 0.0429,
        "meta_ra_of_asc_node": 180.5458,
        "meta_arg_of_pericenter": 99.0829,
        "meta_mean_anomaly": 261.9041,
        "meta_ephemeris_type": 0,
        "meta_classification_type": "U",
        "meta_norad_cat_id": 43633,
        "meta_element_set_no": 999,
        "meta_rev_at_epoch": 2646,
        "meta_bstar": 0,
        "meta_mean_motion_dot": -2.3e-07,
        "meta_mean_motion_ddot": 0,
        "tle_line1": "1 43633U 18074B   25345.81045642 -.00000023  00000+0  00000+0 0  9992",
        "tle_line2": "2 43633   0.0429 180.5458 0001075  99.0829 261.9041  1.00268276 26460"
      },
      "geometry": {
        "type": "Point",
        "coordinates": [
          6.107085319702223,
          0.015353468997717766
        ]
      }
    }
  ]
}